[{"OBJECT_NAME":"GAOFEN-5 01A","OBJECT_ID":"2022-165A","EPOCH":"2026-03-09T23:48:04.634784","MEAN_MOTION":14.5780943,"ECCENTRICITY":6.342e-5,"INCLINATION":98.2281,"RA_OF_ASC_NODE":7.3832,"ARG_OF_PERICENTER":37.2701,"MEAN_ANOMALY":322.8541,"EPHEMERIS_TYPE":0,"CLASSIFICATION_TYPE":"U","NORAD_CAT_ID":54640,"ELEMENT_SET_NO":999,"REV_AT_EPOCH":17296,"BSTAR":0.00017296307,"MEAN_MOTION_DOT":7.46e-6,"MEAN_MOTION_DDOT":0},{"OBJECT_NAME":"FENGYUN 1C DEB","OBJECT_ID":"1999-025BFR","EPOCH":"2026-03-08T11:00:34.246080","MEAN_MOTION":14.53557347,"ECCENTRICITY":0.0055502,"INCLINATION":99.0338,"RA_OF_ASC_NODE":156.8308,"ARG_OF_PERICENTER":24.7721,"MEAN_ANOMALY":335.6119,"EPHEMERIS_TYPE":0,"CLASSIFICATION_TYPE":"U","NORAD_CAT_ID":31071,"ELEMENT_SET_NO":999,"REV_AT_EPOCH":66739,"BSTAR":0.0013889201,"MEAN_MOTION_DOT":5.869e-5,"MEAN_MOTION_DDOT":0}]
